{"fetched_at":"2026-07-06T08:47:03.717Z","source":"https://celestrak.org/NORAD/elements/gp.php?NAME=HAWK&FORMAT=JSON","constellation":"hawkeye-360","records":[{"OBJECT_NAME":"HAWK-12A","OBJECT_ID":"2025-138C","EPOCH":"2026-07-04T23:15:01.181952","CLASSIFICATION_TYPE":"U","MEAN_MOTION":15.18349439,"ECCENTRICITY":0.0015675,"INCLINATION":97.4409,"RA_OF_ASC_NODE":188.449,"ARG_OF_PERICENTER":78.3511,"MEAN_ANOMALY":281.9481,"EPHEMERIS_TYPE":0,"NORAD_CAT_ID":64623,"ELEMENT_SET_NO":999,"REV_AT_EPOCH":5656,"BSTAR":0.00032216,"MEAN_MOTION_DOT":0.0000657,"MEAN_MOTION_DDOT":0},{"OBJECT_NAME":"HAWK-13C","OBJECT_ID":"2026-004AG","EPOCH":"2026-07-05T07:22:41.460384","CLASSIFICATION_TYPE":"U","MEAN_MOTION":15.19303318,"ECCENTRICITY":0.0003501,"INCLINATION":97.4588,"RA_OF_ASC_NODE":185.3249,"ARG_OF_PERICENTER":272.5564,"MEAN_ANOMALY":87.527,"EPHEMERIS_TYPE":0,"NORAD_CAT_ID":67393,"ELEMENT_SET_NO":999,"REV_AT_EPOCH":2651,"BSTAR":0.0003146,"MEAN_MOTION_DOT":0.00006575,"MEAN_MOTION_DDOT":0},{"OBJECT_NAME":"HAWK-13B","OBJECT_ID":"2026-004AK","EPOCH":"2026-07-05T07:22:33.337056","CLASSIFICATION_TYPE":"U","MEAN_MOTION":15.19302501,"ECCENTRICITY":0.0004783,"INCLINATION":97.4528,"RA_OF_ASC_NODE":185.1558,"ARG_OF_PERICENTER":270.583,"MEAN_ANOMALY":89.4856,"EPHEMERIS_TYPE":0,"NORAD_CAT_ID":67396,"ELEMENT_SET_NO":999,"REV_AT_EPOCH":2651,"BSTAR":0.00031188,"MEAN_MOTION_DOT":0.00006518,"MEAN_MOTION_DDOT":0},{"OBJECT_NAME":"HAWK-14B","OBJECT_ID":"2026-067W","EPOCH":"2026-07-05T08:08:38.378112","CLASSIFICATION_TYPE":"U","MEAN_MOTION":15.18378044,"ECCENTRICITY":0.000265,"INCLINATION":97.4558,"RA_OF_ASC_NODE":144.5288,"ARG_OF_PERICENTER":28.2882,"MEAN_ANOMALY":331.8495,"EPHEMERIS_TYPE":0,"NORAD_CAT_ID":68436,"ELEMENT_SET_NO":999,"REV_AT_EPOCH":1469,"BSTAR":0.00031988,"MEAN_MOTION_DOT":0.00006509,"MEAN_MOTION_DDOT":0},{"OBJECT_NAME":"HAWK-14C","OBJECT_ID":"2026-067AB","EPOCH":"2026-07-05T08:08:47.674752","CLASSIFICATION_TYPE":"U","MEAN_MOTION":15.18380178,"ECCENTRICITY":0.0003585,"INCLINATION":97.4496,"RA_OF_ASC_NODE":144.4171,"ARG_OF_PERICENTER":47.0545,"MEAN_ANOMALY":313.0989,"EPHEMERIS_TYPE":0,"NORAD_CAT_ID":68441,"ELEMENT_SET_NO":999,"REV_AT_EPOCH":1469,"BSTAR":0.00032584,"MEAN_MOTION_DOT":0.00006632,"MEAN_MOTION_DDOT":0},{"OBJECT_NAME":"HAWK-14A","OBJECT_ID":"2026-067AJ","EPOCH":"2026-07-05T08:08:57.877728","CLASSIFICATION_TYPE":"U","MEAN_MOTION":15.18376006,"ECCENTRICITY":0.0004305,"INCLINATION":97.462,"RA_OF_ASC_NODE":144.6475,"ARG_OF_PERICENTER":40.9777,"MEAN_ANOMALY":319.1779,"EPHEMERIS_TYPE":0,"NORAD_CAT_ID":68448,"ELEMENT_SET_NO":999,"REV_AT_EPOCH":1469,"BSTAR":0.00032064,"MEAN_MOTION_DOT":0.00006525,"MEAN_MOTION_DDOT":0}]}
