HAWK-12A                
1 64623U 25138C   26185.96876369  .00006570  00000+0  32216-3 0  9990
2 64623  97.4409 188.4490 0015675  78.3511 281.9481 15.18349439 56561
HAWK-13C                
1 67393U 26004AG  26186.30742431  .00006575  00000+0  31460-3 0  9996
2 67393  97.4588 185.3249 0003500 272.5564  87.5270 15.19303318 26519
HAWK-13B                
1 67396U 26004AK  26186.30733030  .00006518  00000+0  31188-3 0  9998
2 67396  97.4528 185.1558 0004782 270.5830  89.4856 15.19302501 26518
HAWK-14B                
1 68436U 26067W   26186.33933309  .00006509  00000+0  31988-3 0  9995
2 68436  97.4558 144.5288 0002649  28.2882 331.8495 15.18378044 14694
HAWK-14C                
1 68441U 26067AB  26186.33944069  .00006632  00000+0  32584-3 0  9996
2 68441  97.4496 144.4171 0003584  47.0545 313.0989 15.18380178 14696
HAWK-14A                
1 68448U 26067AJ  26186.33955878  .00006525  00000+0  32064-3 0  9997
2 68448  97.4620 144.6475 0004304  40.9777 319.1779 15.18376006 14690
